[{"OBJECT_NAME":"BRO-11","OBJECT_ID":"2023-174J","EPOCH":"2026-03-09T23:01:09.890400","MEAN_MOTION":15.26267731,"ECCENTRICITY":0.00104518,"INCLINATION":97.3961,"RA_OF_ASC_NODE":146.7679,"ARG_OF_PERICENTER":189.9892,"MEAN_ANOMALY":170.1141,"EPHEMERIS_TYPE":0,"CLASSIFICATION_TYPE":"U","NORAD_CAT_ID":58264,"ELEMENT_SET_NO":999,"REV_AT_EPOCH":12961,"BSTAR":0.00032296323,"MEAN_MOTION_DOT":8.313e-5,"MEAN_MOTION_DDOT":0},{"OBJECT_NAME":"STARLINK-35884","OBJECT_ID":"2025-294Q","EPOCH":"2026-03-09T22:49:23.966112","MEAN_MOTION":15.27590416,"ECCENTRICITY":7.907e-5,"INCLINATION":42.9978,"RA_OF_ASC_NODE":36.2104,"ARG_OF_PERICENTER":155.0667,"MEAN_ANOMALY":205.0223,"EPHEMERIS_TYPE":0,"CLASSIFICATION_TYPE":"U","NORAD_CAT_ID":67044,"ELEMENT_SET_NO":999,"REV_AT_EPOCH":1484,"BSTAR":0.00099283371,"MEAN_MOTION_DOT":0.00027168,"MEAN_MOTION_DDOT":0}]
